GLOBALSTAR M057         
1 25943U 99058A   25223.19826808 -.00000107  00000+0 -12720-3 0  9994
2 25943  51.9960 192.0824 0002599 121.9547 238.1556 12.24827599173678
GLOBALSTAR M059         
1 25944U 99058B   25223.25906154 -.00000044  00000+0  52291-3 0  9991
2 25944  52.0024  58.1854 0001383  70.5538 100.5038 11.99981142580659
GLOBALSTAR M056         
1 25945U 99058C   25223.28803672 -.00000096  00000+0 -96044-4 0  9999
2 25945  51.9970  58.6527 0000524 353.0386 178.3896 12.04779865169265
GLOBALSTAR M031         
1 25946U 99058D   25223.55384771 -.00000039  00000+0  52166-3 0  9996
2 25946  51.9978 306.9453 0000847 282.3875  90.7866 12.16039389171525
GLOBALSTAR M039         
1 25961U 99062A   25223.35346152 -.00000065  00000+0  21673-3 0  9995
2 25961  51.9843 100.6906 0003181  99.1243 260.9983 12.62330509187215
GLOBALSTAR M034         
1 25962U 99062B   25223.11233856 -.00000072  00000+0  14015-3 0  9996
2 25962  51.9840 228.6144 0014077 145.5350 244.6977 11.79447699144872
GLOBALSTAR M029         
1 25963U 99062C   25223.23586806 -.00000057  00000+0  36577-3 0  9996
2 25963  51.9822 306.2407 0002526 215.6324 159.4947 11.99899438175782
GLOBALSTAR M061         
1 25964U 99062D   25223.27474503 -.00000101  00000+0 -34385-3 0  9997
2 25964  51.9803  52.9569 0006825  69.4990 101.3127 11.76775661127954
